STARLINK-36566          
1 67551U 26014V   26027.58337963 -.01152033  44554-3 -18209-2 0  9992
2 67551  97.2809 270.2261 0001062  73.4366 348.7989 16.03906342  2081
STARLINK-36567          
1 67552U 26014W   26027.58337963 -.01150075  44484-3 -18034-2 0  9995
2 67552  97.2808 270.2268 0001171  90.6488 333.0254 16.04039466  2082
STARLINK-36569          
1 67553U 26014X   26027.58337963 -.01144768  44196-3 -17766-2 0  9999
2 67553  97.2808 270.2275 0001101  73.5728 351.8823 16.04212108  2087
STARLINK-36395          
1 67554U 26014Y   26027.58337963 -.01125314  43049-3 -16994-2 0  9994
2 67554  97.2808 270.2298 0001120  81.7638 348.5094 16.04664593  2087
STARLINK-36559          
1 67555U 26014Z   26027.58337963 -.01131347  43406-3 -17226-2 0  9994
2 67555  97.2809 270.2291 0001077  76.7559 352.0203 16.04528708  2088
2026-015A               
1 67556U 26015A   26027.51083396  .00000229  00000+0  32659-3 0  9995
2 67556  88.9998 282.8443 0004783 112.5853 247.5806 13.52685164   698
2026-015B               
1 67557U 26015B   26027.65886856  .00000097  00000+0  12786-3 0  9995
2 67557  88.9997 282.8297 0004901 111.4214 248.7462 13.52660343   712
ELECTRON R/B            
1 67558U 26015C   26027.67594989  .00817882 -44580-6  99248-3 0  9996
2 67558  89.0044 282.6823 0611210 251.4540 101.9381 14.87963842   781
ELECTRON KICK STAGE R/B 
1 67559U 26015D   26027.60429179  .00079144  42096-6  13484-2 0  9995
2 67559  89.0539 282.7357 0539154 317.8373  38.2522 14.65740459   761
STARLINK-36426          
1 67560U 26014AA  26027.58337963 -.01138703  43830-3 -17536-2 0  9998
2 67560  97.2806 270.2281 0001173  81.1243 345.7526 16.04339818  2086
CZ-2C DEB               
1 67586U 26009C   26027.67463691  .00020786  00000+0  10752-2 0  9997
2 67586  97.2318 101.8078 0116751 181.6214 178.4655 15.10438808  1884
CZ-2C DEB               
1 67587U 26009D   26027.65886432  .00027510  00000+0  13620-2 0  9997
2 67587  97.6859 102.4227 0111811 185.6258 174.3725 15.12340989  1883
